NORAD_CAT_ID,OBJECT_NAME,OBJECT_TYPE,EPOCH,MEAN_MOTION,ECCENTRICITY,INCLINATION,RA_OF_ASC_NODE,ARG_OF_PERICENTER,MEAN_ANOMALY,BSTAR,MEAN_MOTION_DOT,MEAN_MOTION_DDOT,TLE_LINE0,TLE_LINE1,TLE_LINE2,SEMIMAJOR_AXIS,PERIOD,APOGEE,PERIGEE,DECAYED
55310.0,STARLINK-5309,PAYLOAD,2023-02-16 11:12:16,15.69897011,0.0002569,70.0005,350.3611,284.7666,75.3245,-3.2644e-05,-4.13e-05,0.0,0 STARLINK-5309,1 55310U 23010AT  23047.46685566 -.00004130  00000-0 -32644-4 0  9995,2 55310  70.0005 350.3611 0002569 284.7666  75.3245 15.69897011  4892,6737.329,91.726,360.924,357.463,0.0
55310.0,STARLINK-5309,PAYLOAD,2023-02-16 12:44:01,15.69896974,0.0002699,70.0006,350.1832,283.7831,76.3064,-0.00010244,-0.00012496,0.0,0 STARLINK-5309,1 55310U 23010AT  23047.53057061 -.00012496  00000-0 -10244-3 0  9991,2 55310  70.0006 350.1832 0002699 283.7831  76.3064 15.69896974  5228,6737.329,91.726,361.012,357.375,0.0
55310.0,STARLINK-5309,PAYLOAD,2023-02-16 17:19:16,15.69911668,0.000305,70.0006,349.6447,268.7816,91.303,9.6135e-05,0.00011356,0.0,0 STARLINK-5309,1 55310U 23010AT  23047.72172056  .00011356  00000-0  96135-4 0  9990,2 55310  70.0006 349.6447 0003050 268.7816  91.3030 15.69911668  4936,6737.287,91.725,361.207,357.097,0.0
55310.0,STARLINK-5309,PAYLOAD,2023-02-16 21:54:31,15.69949705,0.0002942,70.0007,349.1074,265.4911,94.5949,0.00047406,0.00057236,0.0,0 STARLINK-5309,1 55310U 23010AT  23047.91286955  .00057236  00000-0  47406-3 0  9998,2 55310  70.0007 349.1074 0002942 265.4911  94.5949 15.69949705  5283,6737.178,91.723,361.025,357.061,0.0
55310.0,STARLINK-5309,PAYLOAD,2023-02-17 22:00:00,15.70017989,0.0003144,70.0013,346.2847,263.2925,8.277,-0.0010883,-0.00129571,0.0,0 STARLINK-5309,1 55310U 23010AT  23048.91667824 -.00129571  00000-0 -10883-2 0  9999,2 55310  70.0013 346.2847 0003144 263.2925   8.2770 15.70017989  5121,6736.983,91.719,360.966,356.729,0.0
55310.0,STARLINK-5309,PAYLOAD,2023-02-18 02:57:49,15.69978265,0.0003107,70.0011,345.7031,260.5086,99.5758,0.0006144,0.00074486,0.0,0 STARLINK-5309,1 55310U 23010AT  23049.12348551  .00074486  00000-0  61440-3 0  9994,2 55310  70.0011 345.7031 0003107 260.5086  99.5758 15.69978265  5158,6737.096,91.721,361.054,356.868,0.0
55310.0,STARLINK-5309,PAYLOAD,2023-02-18 10:36:34,15.69929356,0.0003043,70.0014,344.8071,266.9439,93.1408,3.6875e-05,4.224e-05,0.0,0 STARLINK-5309,1 55310U 23010AT  23049.44207110  .00004224  00000-0  36875-4 0  9992,2 55310  70.0014 344.8071 0003043 266.9439  93.1408 15.69929356  5201,6737.236,91.724,361.151,357.051,0.0
55310.0,STARLINK-5309,PAYLOAD,2023-02-18 13:40:05,15.69924748,0.0003077,70.0013,344.4494,265.4148,94.6696,3.2411e-05,3.686e-05,0.0,0 STARLINK-5309,1 55310U 23010AT  23049.56950462  .00003686  00000-0  32411-4 0  9993,2 55310  70.0013 344.4494 0003077 265.4148  94.6696 15.69924748  5545,6737.249,91.724,361.187,357.041,0.0
55310.0,STARLINK-5309,PAYLOAD,2023-02-19 11:04:36,15.69933394,0.0003037,70.0016,341.9412,270.5507,89.534,0.00014204,0.00016906,0.0,0 STARLINK-5309,1 55310U 23010AT  23050.46153741  .00016906  00000-0  14204-3 0  9997,2 55310  70.0016 341.9412 0003037 270.5507  89.5340 15.69933394  5368,6737.225,91.724,361.136,357.043,0.0
55310.0,STARLINK-5309,PAYLOAD,2023-02-19 14:08:06,15.69942307,0.000327,70.0016,341.5833,266.9751,93.107,0.00018975,0.00022682,0.0,0 STARLINK-5309,1 55310U 23010AT  23050.58896867  .00022682  00000-0  18975-3 0  9990,2 55310  70.0016 341.5833 0003270 266.9751  93.1070 15.69942307  5703,6737.199,91.723,361.267,356.861,0.0
55310.0,STARLINK-5309,PAYLOAD,2023-02-19 20:15:07,15.69924271,0.0003399,70.0015,340.8664,265.4419,94.6388,0.000499,0.0006022,0.0,0 STARLINK-5309,1 55310U 23010AT  23050.84383926  .00060220  00000-0  49900-3 0  9998,2 55310  70.0015 340.8664 0003399 265.4419  94.6388 15.69924271  5420,6737.251,91.724,361.406,356.826,0.0
55310.0,STARLINK-5309,PAYLOAD,2023-02-20 10:00:53,15.69921041,0.0003112,70.0016,339.2541,272.8054,87.2786,0.0003035,0.00036433,0.0,0 STARLINK-5309,1 55310U 23010AT  23051.41729081  .00036433  00000-0  30350-3 0  9996,2 55310  70.0016 339.2541 0003112 272.8054  87.2786 15.69921041  5519,6737.26,91.724,361.222,357.028,0.0
55310.0,STARLINK-5309,PAYLOAD,2023-02-20 13:04:24,15.69927757,0.0003408,70.0016,338.8959,264.4187,95.662,0.00042095,0.00050718,0.0,0 STARLINK-5309,1 55310U 23010AT  23051.54472254  .00050718  00000-0  42095-3 0  9998,2 55310  70.0016 338.8959 0003408 264.4187  95.6620 15.69927757  5856,6737.241,91.724,361.402,356.81,0.0
55310.0,STARLINK-5309,PAYLOAD,2023-02-20 19:11:24,15.69921695,0.0003485,70.0015,338.1793,261.8277,98.2523,0.00050858,0.00061384,0.0,0 STARLINK-5309,1 55310U 23010AT  23051.79959188  .00061384  00000-0  50858-3 0  9998,2 55310  70.0015 338.1793 0003485 261.8277  98.2523 15.69921695  5575,6737.258,91.724,361.471,356.775,0.0
55310.0,STARLINK-5309,PAYLOAD,2023-02-21 10:28:55,15.69928131,0.0003295,70.0014,336.3881,268.7866,91.2953,0.00028252,0.000339,0.0,0 STARLINK-5309,1 55310U 23010AT  23052.43675645  .00033900  00000-0  28252-3 0  9999,2 55310  70.0014 336.3881 0003295 268.7866  91.2953 15.69928131  5674,6737.24,91.724,361.325,356.885,0.0
55310.0,STARLINK-5309,PAYLOAD,2023-02-21 13:32:25,15.69934155,0.0003421,70.0013,336.03,266.6756,93.4048,0.00048736,0.00058825,0.0,0 STARLINK-5309,1 55310U 23010AT  23052.56418891  .00058825  00000-0  48736-3 0  9993,2 55310  70.0013 336.0300 0003421 266.6756  93.4048 15.69934155  6013,6737.222,91.724,361.392,356.783,0.0
55310.0,STARLINK-5309,PAYLOAD,2023-02-21 19:39:26,15.69934972,0.0003455,70.0012,335.3139,264.6657,95.4145,0.00010029,0.00011869,0.0,0 STARLINK-5309,1 55310U 23010AT  23052.81905491  .00011869  00000-0  10029-3 0  9999,2 55310  70.0012 335.3139 0003455 264.6657  95.4145 15.69934972  5734,6737.22,91.724,361.413,356.757,0.0
55310.0,STARLINK-5309,PAYLOAD,2023-02-21 21:11:11,15.69943023,0.0003459,70.0012,335.1348,265.0651,95.015,0.00018649,0.00022289,0.0,0 STARLINK-5309,1 55310U 23010AT  23052.88277083  .00022289  00000-0  18649-3 0  9999,2 55310  70.0012 335.1348 0003459 265.0651  95.0150 15.69943023  6063,6737.197,91.723,361.392,356.732,0.0
55310.0,STARLINK-5309,PAYLOAD,2023-02-22 03:18:11,15.69973854,0.0003435,70.0012,334.4181,265.7343,94.346,0.0004471,0.00054006,0.0,0 STARLINK-5309,1 55310U 23010AT  23053.13763299  .00054006  00000-0  44710-3 0  9997,2 55310  70.0012 334.4181 0003435 265.7343  94.3460 15.69973854  5788,6737.109,91.721,361.288,356.66,0.0
55310.0,STARLINK-5309,PAYLOAD,2023-02-22 04:49:57,15.6991171,0.0003228,70.0009,334.2386,273.8064,86.2762,0.00010694,0.00012658,0.0,0 STARLINK-5309,1 55310U 23010AT  23053.20135702  .00012658  00000-0  10694-3 0  9998,2 55310  70.0009 334.2386 0003228 273.8064  86.2762 15.69911710  5798,6737.287,91.725,361.326,356.977,0.0
55310.0,STARLINK-5309,PAYLOAD,2023-02-22 21:39:13,15.6996205,0.0003377,70.0006,332.268,272.782,87.2989,0.00062345,0.00075548,0.0,0 STARLINK-5309,1 55310U 23010AT  23053.90224201  .00075548  00000-0  62345-3 0  9995,2 55310  70.0006 332.2680 0003377 272.7820  87.2989 15.69962050  6227,6737.143,91.722,361.283,356.732,0.0
55310.0,STARLINK-5309,PAYLOAD,2023-02-23 00:42:43,15.69980781,0.0003298,70.0007,331.9095,272.265,87.8168,0.0006152,0.00074594,0.0,0 STARLINK-5309,1 55310U 23010AT  23054.02967157  .00074594  00000-0  61520-3 0  9997,2 55310  70.0007 331.9095 0003298 272.2650  87.8168 15.69980781  5924,6737.089,91.721,361.176,356.732,0.0
55310.0,STARLINK-5309,PAYLOAD,2023-02-23 03:46:13,15.69975892,0.0003462,70.0007,331.5513,273.1013,86.9787,0.00056225,0.00068091,0.0,0 STARLINK-5309,1 55310U 23010AT  23054.15710397  .00068091  00000-0  56225-3 0  9994,2 55310  70.0007 331.5513 0003462 273.1013  86.9787 15.69975892  5947,6737.103,91.721,361.3,356.636,0.0
55310.0,STARLINK-5309,PAYLOAD,2023-02-23 17:32:00,15.69935279,0.000299,70.0003,329.9393,269.2519,90.8334,0.00040358,0.00048616,0.0,0 STARLINK-5309,1 55310U 23010AT  23054.73055918  .00048616  00000-0  40358-3 0  9990,2 55310  70.0003 329.9393 0002990 269.2519  90.8334 15.69935279  6030,6737.219,91.724,361.099,357.07,0.0
55310.0,STARLINK-5309,PAYLOAD,2023-02-23 19:03:45,15.69934275,0.0003679,70.0005,329.7605,269.5738,90.5036,0.0001549,0.00018462,0.0,0 STARLINK-5309,1 55310U 23010AT  23054.79427420  .00018462  00000-0  15490-3 0  9992,2 55310  70.0005 329.7605 0003679 269.5738  90.5036 15.69934275  6364,6737.222,91.724,361.566,356.608,0.0
55310.0,STARLINK-5309,PAYLOAD,2023-02-23 22:07:15,15.6993947,0.0003397,70.0005,329.4021,268.4698,91.6109,0.00024782,0.0002971,0.0,0 STARLINK-5309,1 55310U 23010AT  23054.92170777  .00029710  00000-0  24782-3 0  9999,2 55310  70.0005 329.4021 0003397 268.4698  91.6109 15.69939470  6065,6737.207,91.723,361.361,356.784,0.0
55310.0,STARLINK-5309,PAYLOAD,2023-02-24 04:14:15,15.69944519,0.0003217,70.0005,328.6854,273.1416,86.9412,0.00022827,0.00027347,0.0,0 STARLINK-5309,1 55310U 23010AT  23055.17657395  .00027347  00000-0  22827-3 0  9995,2 55310  70.0005 328.6854 0003217 273.1416  86.9412 15.69944519  6101,6737.193,91.723,361.225,356.89,0.0
55310.0,STARLINK-5309,PAYLOAD,2023-02-24 11:53:01,15.69944964,0.0003122,69.9992,327.7898,264.6811,95.4029,0.00017497,0.00020896,0.0,0 STARLINK-5309,1 55310U 23010AT  23055.49515624  .00020896  00000-0  17497-3 0  9997,2 55310  69.9992 327.7898 0003122 264.6811  95.4029 15.69944964  6473,6737.191,91.723,361.16,356.953,0.0
55310.0,STARLINK-5309,PAYLOAD,2023-02-24 21:03:32,15.69899248,0.0003681,70.0004,326.7147,257.902,102.1763,1.8124e-05,1.965e-05,0.0,0 STARLINK-5309,1 55310U 23010AT  23055.87746437  .00001965  00000-0  18124-4 0  9992,2 55310  70.0004 326.7147 0003681 257.9020 102.1763 15.69899248  6535,6737.322,91.726,361.667,356.707,0.0
55310.0,STARLINK-5309,PAYLOAD,2023-02-25 01:38:48,15.6990079,0.0003605,70.0003,326.1768,260.5941,99.4847,0.00016716,0.00019916,0.0,0 STARLINK-5309,1 55310U 23010AT  23056.06861950  .00019916  00000-0  16716-3 0  9991,2 55310  70.0003 326.1768 0003605 260.5941  99.4847 15.69900790  6249,6737.318,91.726,361.612,356.754,0.0
